{"fetched_at":"2026-03-30T06:02:59Z","count":15439,"tles":[{"name":"STARLINK-5861","line1":"1 55921U 23037H   26087.88461352  .00000222  00000+0  26380-4 0  9995","line2":"2 55921  69.9990 256.0053 0002035 277.6488  82.4440 14.98331446166366","category":"Starlink"}]}