{
  "norad_id": 55921,
  "name": "STARLINK-5861",
  "history": [
    {
      "epoch": "2026-03-28T21:13:50.608128Z",
      "apogee_km": 573.4657826556231,
      "perigee_km": 570.6370559689622,
      "latitude_deg": 1.4761822256060459e-05,
      "longitude_deg": 111.24578735134557,
      "height_km": 574.2894844380692,
      "semi_major_axis_km": 6950.188419312292,
      "eccentricity": 0.0002035,
      "inclination_deg": 69.999,
      "raan_deg": 256.0053,
      "arg_perigee_deg": 277.6488,
      "mean_anomaly_deg": 82.444,
      "mean_motion_rev_day": 14.98331446
    }
  ]
}